NORAD_CAT_ID,OBJECT_NAME,OBJECT_TYPE,EPOCH,MEAN_MOTION,ECCENTRICITY,INCLINATION,RA_OF_ASC_NODE,ARG_OF_PERICENTER,MEAN_ANOMALY,BSTAR,MEAN_MOTION_DOT,MEAN_MOTION_DDOT,TLE_LINE0,TLE_LINE1,TLE_LINE2,SEMIMAJOR_AXIS,PERIOD,APOGEE,PERIGEE,DECAYED
54201.0,STARLINK-5199,PAYLOAD,2023-04-10 08:33:44,15.08839603,0.0001356,53.219,91.8199,100.7494,259.365,0.00019479,2.813e-05,0.0,0 STARLINK-5199,1 54201U 22141AW  23100.35676399  .00002813  00000-0  19479-3 0  9993,2 54201  53.2190  91.8199 0001356 100.7494 259.3650 15.08839603 25551,6917.882,95.438,540.685,538.809,0.0
54201.0,STARLINK-5199,PAYLOAD,2023-04-10 16:30:40,15.08836212,0.0001325,53.2185,90.3324,91.719,268.3954,7.2373e-05,8.64e-06,0.0,0 STARLINK-5199,1 54201U 22141AW  23100.68796641  .00000864  00000-0  72373-4 0  9999,2 54201  53.2185  90.3324 0001325  91.7190 268.3954 15.08836212 25377,6917.892,95.438,540.674,538.84,0.0
54201.0,STARLINK-5199,PAYLOAD,2023-04-11 06:49:08,15.08844843,0.0001217,53.2186,87.6563,93.2381,266.875,0.00010452,1.376e-05,0.0,0 STARLINK-5199,1 54201U 22141AW  23101.28412321  .00001376  00000-0  10452-3 0  9994,2 54201  53.2186  87.6563 0001217  93.2381 266.8750 15.08844843 25467,6917.866,95.437,540.572,538.889,0.0
54201.0,STARLINK-5199,PAYLOAD,2023-04-11 16:21:27,15.08837051,0.0001204,53.218,85.8727,90.225,269.888,2.1733e-05,5.8e-07,0.0,0 STARLINK-5199,1 54201U 22141AW  23101.68157049  .00000058  00000-0  21733-4 0  9992,2 54201  53.2180  85.8727 0001204  90.2250 269.8880 15.08837051 25753,6917.889,95.438,540.587,538.921,0.0
54201.0,STARLINK-5199,PAYLOAD,2023-04-12 09:50:42,15.08840807,0.000138,53.2189,82.6006,91.301,268.814,5.755e-05,6.28e-06,0.0,0 STARLINK-5199,1 54201U 22141AW  23102.41020846  .00000628  00000-0  57550-4 0  9997,2 54201  53.2189  82.6006 0001380  91.3010 268.8140 15.08840807 25636,6917.878,95.438,540.698,538.788,0.0
54201.0,STARLINK-5199,PAYLOAD,2023-04-13 08:06:05,15.08852292,0.0001204,53.2184,78.4378,94.3674,265.7456,0.00015046,2.108e-05,0.0,0 STARLINK-5199,1 54201U 22141AW  23103.33755836  .00002108  00000-0  15046-3 0  9991,2 54201  53.2184  78.4378 0001204  94.3674 265.7456 15.08852292 25772,6917.843,95.437,540.541,538.875,0.0
54201.0,STARLINK-5199,PAYLOAD,2023-04-13 09:41:27,15.0885619,0.0001099,53.2191,78.1403,93.8426,266.2692,0.00017471,2.495e-05,0.0,0 STARLINK-5199,1 54201U 22141AW  23103.40379553  .00002495  00000-0  17471-3 0  9990,2 54201  53.2191  78.1403 0001099  93.8426 266.2692 15.08856190 26014,6917.831,95.437,540.456,538.936,0.0
54201.0,STARLINK-5199,PAYLOAD,2023-04-14 04:46:06,15.08846421,0.0001019,53.2179,74.5765,96.331,263.7799,9.0921e-05,1.16e-05,0.0,0 STARLINK-5199,1 54201U 22141AW  23104.19868484  .00001160  00000-0  90921-4 0  9993,2 54201  53.2179  74.5765 0001019  96.3310 263.7799 15.08846421 26132,6917.861,95.437,540.431,539.021,0.0
54201.0,STARLINK-5199,PAYLOAD,2023-04-14 07:56:52,15.08847717,0.0001162,53.2184,73.9773,99.6888,260.4236,0.0001613,2.281e-05,0.0,0 STARLINK-5199,1 54201U 22141AW  23104.33116407  .00002281  00000-0  16130-3 0  9994,2 54201  53.2184  73.9773 0001162  99.6888 260.4236 15.08847717 25920,6917.857,95.437,540.526,538.918,0.0
54201.0,STARLINK-5199,PAYLOAD,2023-04-15 07:47:39,15.0884689,0.0001113,53.2187,69.5178,93.9894,266.1226,6.8655e-05,8.05e-06,0.0,0 STARLINK-5199,1 54201U 22141AW  23105.32476341  .00000805  00000-0  68655-4 0  9990,2 54201  53.2187  69.5178 0001113  93.9894 266.1226 15.08846890 26073,6917.859,95.437,540.494,538.954,0.0
54201.0,STARLINK-5199,PAYLOAD,2023-04-15 22:06:08,15.08834561,0.0001106,53.2183,66.8414,95.2549,264.857,5.9261e-05,6.55e-06,0.0,0 STARLINK-5199,1 54201U 22141AW  23105.92093212  .00000655  00000-0  59261-4 0  9994,2 54201  53.2183  66.8414 0001106  95.2549 264.8570 15.08834561 26165,6917.897,95.438,540.527,538.997,0.0
54201.0,STARLINK-5199,PAYLOAD,2023-04-16 06:03:03,15.08846138,0.0001097,53.2188,65.3551,90.9074,269.2044,0.0001295,1.774e-05,0.0,0 STARLINK-5199,1 54201U 22141AW  23106.25212679  .00001774  00000-0  12950-3 0  9997,2 54201  53.2188  65.3551 0001097  90.9074 269.2044 15.08846138 26449,6917.862,95.437,540.486,538.968,0.0
54201.0,STARLINK-5199,PAYLOAD,2023-04-17 04:18:28,15.08841159,9.94e-05,53.2192,61.1939,68.6091,291.5007,0.0002049,2.975e-05,0.0,0 STARLINK-5199,1 54201U 22141AW  23107.17949211  .00002975  00000-0  20490-3 0  9990,2 54201  53.2192  61.1939 0000994  68.6091 291.5007 15.08841159 26584,6917.877,95.437,540.429,539.054,0.0
54201.0,STARLINK-5199,PAYLOAD,2023-04-17 07:29:14,15.08847676,0.0001147,53.2185,60.5973,87.4704,272.6419,0.00023646,3.478e-05,0.0,0 STARLINK-5199,1 54201U 22141AW  23107.31196855  .00003478  00000-0  23646-3 0  9999,2 54201  53.2185  60.5973 0001147  87.4704 272.6419 15.08847676 26372,6917.857,95.437,540.515,538.928,0.0
54201.0,STARLINK-5199,PAYLOAD,2023-04-18 05:44:38,15.08842941,0.0001277,53.2186,56.4329,86.6507,273.4632,8.5043e-05,1.066e-05,0.0,0 STARLINK-5199,1 54201U 22141AW  23108.23933176  .00001066  00000-0  85043-4 0  9997,2 54201  53.2186  56.4329 0001277  86.6507 273.4632 15.08842941 26510,6917.871,95.437,540.62,538.853,0.0
54201.0,STARLINK-5199,PAYLOAD,2023-04-19 02:24:39,15.08839794,0.000146,53.22,52.5685,80.696,279.4198,6.9486e-06,-1.77e-06,0.0,0 STARLINK-5199,1 54201U 22141AW  23109.10045769 -.00000177  00000-0  69486-5 0  9993,2 54201  53.2200  52.5685 0001460  80.6960 279.4198 15.08839794 26874,6917.881,95.438,540.756,538.736,0.0
54201.0,STARLINK-5199,PAYLOAD,2023-04-19 05:35:25,15.08842327,0.0001229,53.2182,51.9733,96.3144,263.7988,6.004e-05,6.68e-06,0.0,0 STARLINK-5199,1 54201U 22141AW  23109.23293523  .00000668  00000-0  60040-4 0  9990,2 54201  53.2182  51.9733 0001229  96.3144 263.7988 15.08842327 26667,6917.873,95.437,540.588,538.888,0.0
54201.0,STARLINK-5199,PAYLOAD,2023-04-20 05:26:11,15.08856796,0.0001307,53.2198,47.5113,101.6157,258.4982,0.0002597,3.849e-05,0.0,0 STARLINK-5199,1 54201U 22141AW  23110.22652713  .00003849  00000-0  25970-3 0  9997,2 54201  53.2198  47.5113 0001307 101.6157 258.4982 15.08856796 26815,6917.829,95.436,540.598,538.79,0.0
54201.0,STARLINK-5199,PAYLOAD,2023-04-21 05:17:00,15.08837265,0.0001038,53.2201,43.0526,98.2848,261.8262,-1.7163e-05,-5.61e-06,0.0,0 STARLINK-5199,1 54201U 22141AW  23111.22013995 -.00000561  00000-0 -17163-4 0  9997,2 54201  53.2201  43.0526 0001038  98.2848 261.8262 15.08837265 27199,6917.889,95.438,540.472,539.036,0.0
54201.0,STARLINK-5199,PAYLOAD,2023-04-21 19:35:28,15.08844297,0.0001182,53.2203,40.3759,128.3573,231.7526,-2.6415e-05,-7.08e-06,0.0,0 STARLINK-5199,1 54201U 22141AW  23111.81629724 -.00000708  00000-0 -26415-4 0  9998,2 54201  53.2203  40.3759 0001182 128.3573 231.7526 15.08844297 27056,6917.867,95.437,540.55,538.915,0.0
54201.0,STARLINK-5199,PAYLOAD,2023-04-22 01:57:00,15.08853425,8.16e-05,53.218,39.1895,88.9018,271.2068,0.00011769,1.586e-05,0.0,0 STARLINK-5199,1 54201U 22141AW  23112.08125337  .00001586  00000-0  11769-3 0  9997,2 54201  53.2180  39.1895 0000816  88.9018 271.2068 15.08853425 27328,6917.839,95.437,540.269,539.14,0.0
54201.0,STARLINK-5199,PAYLOAD,2023-04-22 05:07:46,15.08854116,9.15e-05,53.2185,38.594,87.0157,273.094,0.00034599,5.225e-05,0.0,0 STARLINK-5199,1 54201U 22141AW  23112.21373465  .00005225  00000-0  34599-3 0  9999,2 54201  53.2185  38.5940 0000915  87.0157 273.0940 15.08854116 27115,6917.837,95.437,540.335,539.069,0.0
54201.0,STARLINK-5199,PAYLOAD,2023-04-23 04:58:33,15.08849604,8.5e-05,53.2182,34.1318,66.47,293.6382,0.00016759,2.381e-05,0.0,0 STARLINK-5199,1 54201U 22141AW  23113.20733243  .00002381  00000-0  16759-3 0  9991,2 54201  53.2182  34.1318 0000850  66.4700 293.6382 15.08849604 27266,6917.851,95.437,540.304,539.128,0.0
54201.0,STARLINK-5199,PAYLOAD,2023-04-24 03:13:56,15.08877151,9.94e-05,53.217,29.9711,86.6072,273.5033,0.00074175,0.00011549,0.0,0 STARLINK-5199,1 54201U 22141AW  23114.13468358  .00011549  00000-0  74175-3 0  9998,2 54201  53.2170  29.9711 0000994  86.6072 273.5033 15.08877151 27636,6917.767,95.435,540.319,538.944,0.0
54201.0,STARLINK-5199,PAYLOAD,2023-04-25 01:29:19,15.08889484,0.000104,53.2174,25.8095,90.8191,269.2921,0.00090512,0.00014166,0.0,0 STARLINK-5199,1 54201U 22141AW  23115.06202696  .00014166  00000-0  90512-3 0  9993,2 54201  53.2174  25.8095 0001040  90.8191 269.2921 15.08889484 27777,6917.729,95.434,540.314,538.875,0.0
54201.0,STARLINK-5199,PAYLOAD,2023-04-26 04:30:54,15.0881107,0.0001264,53.2169,20.7536,100.7223,259.3911,0.00020322,2.945e-05,0.0,0 STARLINK-5199,1 54201U 22141AW  23116.18813364  .00002945  00000-0  20322-3 0  9991,2 54201  53.2169  20.7536 0001264 100.7223 259.3911 15.08811070 27719,6917.969,95.439,540.708,538.959,0.0
54201.0,STARLINK-5199,PAYLOAD,2023-04-26 23:35:33,15.08825249,0.0001302,53.2166,17.1859,91.4356,268.6785,0.00060758,9.391e-05,0.0,0 STARLINK-5199,1 54201U 22141AW  23116.98302592  .00009391  00000-0  60758-3 0  9994,2 54201  53.2166  17.1859 0001302  91.4356 268.6785 15.08825249 28064,6917.925,95.438,540.691,538.89,0.0
54201.0,STARLINK-5199,PAYLOAD,2023-04-27 02:46:19,15.08834342,0.0001408,53.217,16.5902,97.0972,263.018,0.00081819,0.00012755,0.0,0 STARLINK-5199,1 54201U 22141AW  23117.11550554  .00012755  00000-0  81819-3 0  9992,2 54201  53.2170  16.5902 0001408  97.0972 263.0180 15.08834342 27852,6917.898,95.438,540.737,538.789,0.0
54201.0,STARLINK-5199,PAYLOAD,2023-04-28 10:34:02,15.0884405,0.0001535,53.2172,10.643,82.4994,277.6172,0.00025644,3.796e-05,0.0,0 STARLINK-5199,1 54201U 22141AW  23118.44030468  .00003796  00000-0  25644-3 0  9995,2 54201  53.2172  10.6430 0001535  82.4994 277.6172 15.08844050 28285,6917.868,95.437,540.795,538.671,0.0
54201.0,STARLINK-5199,PAYLOAD,2023-04-29 02:27:53,15.08842366,0.0001394,53.2176,7.6691,85.5546,274.5606,0.00024533,3.619e-05,0.0,0 STARLINK-5199,1 54201U 22141AW  23119.10270673  .00003619  00000-0  24533-3 0  9993,2 54201  53.2176   7.6691 0001394  85.5546 274.5606 15.08842366 28381,6917.873,95.437,540.703,538.774,0.0
